CCSDS_OMM_VERS = 2.0
CREATION_DATE  = 
ORIGINATOR     = 

OBJECT_NAME    = UNKNOWN
OBJECT_ID      = 
CENTER_NAME    = EARTH
REF_FRAME      = TEME
TIME_SYSTEM    = UTC
MEAN_ELEMENT_THEORY = SGP/SGP4

EPOCH          = 2025-10-31T12:06:51.685632
MEAN_MOTION    = 11.29112830
ECCENTRICITY   = .0168315
INCLINATION    = 65.0944
RA_OF_ASC_NODE = 126.2556
ARG_OF_PERICENTER = 345.0925
MEAN_ANOMALY   = 42.7807

EPHEMERIS_TYPE = 0
CLASSIFICATION_TYPE = U
NORAD_CAT_ID   = 82829
ELEMENT_SET_NO = 999
REV_AT_EPOCH   = 48131
BSTAR          = .21351E-2
MEAN_MOTION_DOT = .35E-6
MEAN_MOTION_DDOT = 0

CCSDS_OMM_VERS = 2.0
CREATION_DATE  = 
ORIGINATOR     = 

OBJECT_NAME    = UNKNOWN
OBJECT_ID      = 
CENTER_NAME    = EARTH
REF_FRAME      = TEME
TIME_SYSTEM    = UTC
MEAN_ELEMENT_THEORY = SGP/SGP4

EPOCH          = 2025-11-03T16:09:33.550272
MEAN_MOTION    = 13.87578696
ECCENTRICITY   = .0126555
INCLINATION    = 82.6880
RA_OF_ASC_NODE = 95.2368
ARG_OF_PERICENTER = 32.0346
MEAN_ANOMALY   = 328.8428

EPHEMERIS_TYPE = 0
CLASSIFICATION_TYPE = U
NORAD_CAT_ID   = 82854
ELEMENT_SET_NO = 999
REV_AT_EPOCH   = 60238
BSTAR          = .12516E-2
MEAN_MOTION_DOT = .1591E-4
MEAN_MOTION_DDOT = 0

CCSDS_OMM_VERS = 2.0
CREATION_DATE  = 
ORIGINATOR     = 

OBJECT_NAME    = UNKNOWN
OBJECT_ID      = 
CENTER_NAME    = EARTH
REF_FRAME      = TEME
TIME_SYSTEM    = UTC
MEAN_ELEMENT_THEORY = SGP/SGP4

EPOCH          = 2025-11-10T10:27:54.123840
MEAN_MOTION    = 14.24033977
ECCENTRICITY   = .0041715
INCLINATION    = 99.9946
RA_OF_ASC_NODE = 204.2024
ARG_OF_PERICENTER = 13.2656
MEAN_ANOMALY   = 346.9605

EPHEMERIS_TYPE = 0
CLASSIFICATION_TYPE = U
NORAD_CAT_ID   = 82873
ELEMENT_SET_NO = 999
REV_AT_EPOCH   = 61663
BSTAR          = .25346E-2
MEAN_MOTION_DOT = .5826E-4
MEAN_MOTION_DDOT = 0

CCSDS_OMM_VERS = 2.0
CREATION_DATE  = 
ORIGINATOR     = 

OBJECT_NAME    = UNKNOWN
OBJECT_ID      = 
CENTER_NAME    = EARTH
REF_FRAME      = TEME
TIME_SYSTEM    = UTC
MEAN_ELEMENT_THEORY = SGP/SGP4

EPOCH          = 2025-11-08T17:58:37.303968
MEAN_MOTION    = 14.15017496
ECCENTRICITY   = .0379026
INCLINATION    = 98.6729
RA_OF_ASC_NODE = 296.9408
ARG_OF_PERICENTER = 20.7317
MEAN_ANOMALY   = 340.8775

EPHEMERIS_TYPE = 0
CLASSIFICATION_TYPE = U
NORAD_CAT_ID   = 82875
ELEMENT_SET_NO = 999
REV_AT_EPOCH   = 53966
BSTAR          = .53824E-3
MEAN_MOTION_DOT = .2044E-4
MEAN_MOTION_DDOT = 0

CCSDS_OMM_VERS = 2.0
CREATION_DATE  = 
ORIGINATOR     = 

OBJECT_NAME    = UNKNOWN
OBJECT_ID      = 
CENTER_NAME    = EARTH
REF_FRAME      = TEME
TIME_SYSTEM    = UTC
MEAN_ELEMENT_THEORY = SGP/SGP4

EPOCH          = 2025-11-11T18:37:18.460704
MEAN_MOTION    = 14.30818407
ECCENTRICITY   = .0026431
INCLINATION    = 98.9634
RA_OF_ASC_NODE = 69.8902
ARG_OF_PERICENTER = 138.3361
MEAN_ANOMALY   = 221.9840

EPHEMERIS_TYPE = 0
CLASSIFICATION_TYPE = U
NORAD_CAT_ID   = 82893
ELEMENT_SET_NO = 999
REV_AT_EPOCH   = 41954
BSTAR          = .56367E-2
MEAN_MOTION_DOT = .14817E-3
MEAN_MOTION_DDOT = 0

CCSDS_OMM_VERS = 2.0
CREATION_DATE  = 
ORIGINATOR     = 

OBJECT_NAME    = UNKNOWN
OBJECT_ID      = 
CENTER_NAME    = EARTH
REF_FRAME      = TEME
TIME_SYSTEM    = UTC
MEAN_ELEMENT_THEORY = SGP/SGP4

EPOCH          = 2025-11-12T12:31:10.346592
MEAN_MOTION    = 13.27352995
ECCENTRICITY   = .0778853
INCLINATION    = 65.8352
RA_OF_ASC_NODE = 243.9026
ARG_OF_PERICENTER = 282.5302
MEAN_ANOMALY   = 68.9761

EPHEMERIS_TYPE = 0
CLASSIFICATION_TYPE = U
NORAD_CAT_ID   = 82912
ELEMENT_SET_NO = 999
REV_AT_EPOCH   = 57531
BSTAR          = .34324E-2
MEAN_MOTION_DOT = .8464E-4
MEAN_MOTION_DDOT = 0

CCSDS_OMM_VERS = 2.0
CREATION_DATE  = 
ORIGINATOR     = 

OBJECT_NAME    = UNKNOWN
OBJECT_ID      = 
CENTER_NAME    = EARTH
REF_FRAME      = TEME
TIME_SYSTEM    = UTC
MEAN_ELEMENT_THEORY = SGP/SGP4

EPOCH          = 2025-11-11T21:43:00.539904
MEAN_MOTION    = 13.22527452
ECCENTRICITY   = .0379524
INCLINATION    = 99.9213
RA_OF_ASC_NODE = 111.9509
ARG_OF_PERICENTER = 80.0071
MEAN_ANOMALY   = 284.3648

EPHEMERIS_TYPE = 0
CLASSIFICATION_TYPE = U
NORAD_CAT_ID   = 82961
ELEMENT_SET_NO = 999
REV_AT_EPOCH   = 55163
BSTAR          = .17177E-1
MEAN_MOTION_DOT = .10471E-3
MEAN_MOTION_DDOT = 0

CCSDS_OMM_VERS = 2.0
CREATION_DATE  = 
ORIGINATOR     = 

OBJECT_NAME    = UNKNOWN
OBJECT_ID      = 
CENTER_NAME    = EARTH
REF_FRAME      = TEME
TIME_SYSTEM    = UTC
MEAN_ELEMENT_THEORY = SGP/SGP4

EPOCH          = 2025-10-28T15:49:37.340544
MEAN_MOTION    = 13.59868042
ECCENTRICITY   = .0002369
INCLINATION    = 100.1169
RA_OF_ASC_NODE = 19.7271
ARG_OF_PERICENTER = 200.4397
MEAN_ANOMALY   = 159.6647

EPHEMERIS_TYPE = 0
CLASSIFICATION_TYPE = U
NORAD_CAT_ID   = 82965
ELEMENT_SET_NO = 999
REV_AT_EPOCH   = 51832
BSTAR          = .186E-2
MEAN_MOTION_DOT = .1337E-4
MEAN_MOTION_DDOT = 0

CCSDS_OMM_VERS = 2.0
CREATION_DATE  = 
ORIGINATOR     = 

OBJECT_NAME    = UNKNOWN
OBJECT_ID      = 
CENTER_NAME    = EARTH
REF_FRAME      = TEME
TIME_SYSTEM    = UTC
MEAN_ELEMENT_THEORY = SGP/SGP4

EPOCH          = 2025-11-12T13:43:28.778304
MEAN_MOTION    = 0.99112788
ECCENTRICITY   = .0124852
INCLINATION    = 6.2614
RA_OF_ASC_NODE = 290.8858
ARG_OF_PERICENTER = 250.4756
MEAN_ANOMALY   = 305.0077

EPHEMERIS_TYPE = 0
CLASSIFICATION_TYPE = U
NORAD_CAT_ID   = 83903
ELEMENT_SET_NO = 999
REV_AT_EPOCH   = 4336
BSTAR          = 0
MEAN_MOTION_DOT = .2E-6
MEAN_MOTION_DDOT = 0

CCSDS_OMM_VERS = 2.0
CREATION_DATE  = 
ORIGINATOR     = 

OBJECT_NAME    = UNKNOWN
OBJECT_ID      = 
CENTER_NAME    = EARTH
REF_FRAME      = TEME
TIME_SYSTEM    = UTC
MEAN_ELEMENT_THEORY = SGP/SGP4

EPOCH          = 2025-11-04T21:49:00.362208
MEAN_MOTION    = 1.02664883
ECCENTRICITY   = .0234954
INCLINATION    = 5.8710
RA_OF_ASC_NODE = 297.7524
ARG_OF_PERICENTER = 271.1488
MEAN_ANOMALY   = 248.3162

EPHEMERIS_TYPE = 0
CLASSIFICATION_TYPE = U
NORAD_CAT_ID   = 83934
ELEMENT_SET_NO = 999
REV_AT_EPOCH   = 4489
BSTAR          = 0
MEAN_MOTION_DOT = -.304E-5
MEAN_MOTION_DDOT = 0

CCSDS_OMM_VERS = 2.0
CREATION_DATE  = 
ORIGINATOR     = 

OBJECT_NAME    = UNKNOWN
OBJECT_ID      = 
CENTER_NAME    = EARTH
REF_FRAME      = TEME
TIME_SYSTEM    = UTC
MEAN_ELEMENT_THEORY = SGP/SGP4

EPOCH          = 2025-11-12T00:49:10.782048
MEAN_MOTION    = 5.31570666
ECCENTRICITY   = .5072582
INCLINATION    = 18.2617
RA_OF_ASC_NODE = 254.1475
ARG_OF_PERICENTER = 80.1282
MEAN_ANOMALY   = 331.3595

EPHEMERIS_TYPE = 0
CLASSIFICATION_TYPE = U
NORAD_CAT_ID   = 83970
ELEMENT_SET_NO = 999
REV_AT_EPOCH   = 19457
BSTAR          = .59994E-2
MEAN_MOTION_DOT = .5436E-4
MEAN_MOTION_DDOT = 0

CCSDS_OMM_VERS = 2.0
CREATION_DATE  = 
ORIGINATOR     = 

OBJECT_NAME    = UNKNOWN
OBJECT_ID      = 
CENTER_NAME    = EARTH
REF_FRAME      = TEME
TIME_SYSTEM    = UTC
MEAN_ELEMENT_THEORY = SGP/SGP4

EPOCH          = 2025-11-12T03:04:51.967200
MEAN_MOTION    = 2.16233259
ECCENTRICITY   = .6139671
INCLINATION    = 22.5073
RA_OF_ASC_NODE = 183.7426
ARG_OF_PERICENTER = 50.0292
MEAN_ANOMALY   = 349.6278

EPHEMERIS_TYPE = 0
CLASSIFICATION_TYPE = U
NORAD_CAT_ID   = 84006
ELEMENT_SET_NO = 999
REV_AT_EPOCH   = 8356
BSTAR          = 0
MEAN_MOTION_DOT = -.106E-5
MEAN_MOTION_DDOT = 0

CCSDS_OMM_VERS = 2.0
CREATION_DATE  = 
ORIGINATOR     = 

OBJECT_NAME    = UNKNOWN
OBJECT_ID      = 
CENTER_NAME    = EARTH
REF_FRAME      = TEME
TIME_SYSTEM    = UTC
MEAN_ELEMENT_THEORY = SGP/SGP4

EPOCH          = 2025-11-10T23:29:43.987776
MEAN_MOTION    = 7.27983285
ECCENTRICITY   = .3879387
INCLINATION    = 65.1415
RA_OF_ASC_NODE = 284.2946
ARG_OF_PERICENTER = 22.1184
MEAN_ANOMALY   = 350.9203

EPHEMERIS_TYPE = 0
CLASSIFICATION_TYPE = U
NORAD_CAT_ID   = 84188
ELEMENT_SET_NO = 999
REV_AT_EPOCH   = 3891
BSTAR          = .23796E+0
MEAN_MOTION_DOT = .243409E-2
MEAN_MOTION_DDOT = 0

CCSDS_OMM_VERS = 2.0
CREATION_DATE  = 
ORIGINATOR     = 

OBJECT_NAME    = UNKNOWN
OBJECT_ID      = 
CENTER_NAME    = EARTH
REF_FRAME      = TEME
TIME_SYSTEM    = UTC
MEAN_ELEMENT_THEORY = SGP/SGP4

EPOCH          = 2025-11-11T06:49:11.015328
MEAN_MOTION    = 3.16606943
ECCENTRICITY   = .6566954
INCLINATION    = 20.3890
RA_OF_ASC_NODE = 292.2903
ARG_OF_PERICENTER = 31.8689
MEAN_ANOMALY   = 354.8228

EPHEMERIS_TYPE = 0
CLASSIFICATION_TYPE = U
NORAD_CAT_ID   = 84232
ELEMENT_SET_NO = 999
REV_AT_EPOCH   = 10369
BSTAR          = .66056E-2
MEAN_MOTION_DOT = .8128E-4
MEAN_MOTION_DDOT = 0

CCSDS_OMM_VERS = 2.0
CREATION_DATE  = 
ORIGINATOR     = 

OBJECT_NAME    = UNKNOWN
OBJECT_ID      = 
CENTER_NAME    = EARTH
REF_FRAME      = TEME
TIME_SYSTEM    = UTC
MEAN_ELEMENT_THEORY = SGP/SGP4

EPOCH          = 2025-11-08T17:05:07.258848
MEAN_MOTION    = 2.62485704
ECCENTRICITY   = .6894804
INCLINATION    = 9.4478
RA_OF_ASC_NODE = 350.1824
ARG_OF_PERICENTER = 64.1895
MEAN_ANOMALY   = 349.7239

EPHEMERIS_TYPE = 0
CLASSIFICATION_TYPE = U
NORAD_CAT_ID   = 84236
ELEMENT_SET_NO = 999
REV_AT_EPOCH   = 11308
BSTAR          = .34603E-2
MEAN_MOTION_DOT = .472E-5
MEAN_MOTION_DDOT = 0

CCSDS_OMM_VERS = 2.0
CREATION_DATE  = 
ORIGINATOR     = 

OBJECT_NAME    = UNKNOWN
OBJECT_ID      = 
CENTER_NAME    = EARTH
REF_FRAME      = TEME
TIME_SYSTEM    = UTC
MEAN_ELEMENT_THEORY = SGP/SGP4

EPOCH          = 2025-11-12T07:52:51.281184
MEAN_MOTION    = 6.21240621
ECCENTRICITY   = .4565803
INCLINATION    = 23.8098
RA_OF_ASC_NODE = 202.4432
ARG_OF_PERICENTER = 166.7330
MEAN_ANOMALY   = 211.2363

EPHEMERIS_TYPE = 0
CLASSIFICATION_TYPE = U
NORAD_CAT_ID   = 84292
ELEMENT_SET_NO = 999
REV_AT_EPOCH   = 22617
BSTAR          = .44387E-2
MEAN_MOTION_DOT = .7818E-4
MEAN_MOTION_DDOT = 0

